{
  "type": "FeatureCollection",
  "features": [
    {
      "type": "Feature",
      "properties": {
        "norad_id": 33376,
        "name": "GALAXY 19 (G-19)",
        "group": "intelsat",
        "lat": 0.020413415130633477,
        "lon": 80.78066529356987,
        "alt_km": 35797.00525314288,
        "timestamp": "2025-12-26T05:31:12.167525+00:00",
        "meta_object_name": "GALAXY 19 (G-19)",
        "meta_object_id": "2008-045A",
        "meta_epoch": "2025-12-25T10:42:38.666304",
        "meta_mean_motion": 1.00271832,
        "meta_eccentricity": 0.0002747,
        "meta_inclination": 0.0408,
        "meta_ra_of_asc_node": 264.6224,
        "meta_arg_of_pericenter": 16.378,
        "meta_mean_anomaly": 236.8641,
        "meta_ephemeris_type": 0,
        "meta_classification_type": "U",
        "meta_norad_cat_id": 33376,
        "meta_element_set_no": 999,
        "meta_rev_at_epoch": 6316,
        "meta_bstar": 0,
        "meta_mean_motion_dot": -1.18e-06,
        "meta_mean_motion_ddot": 0,
        "tle_line1": "1 33376U 08045A   25359.44628086 -.00000118  00000+0  00000+0 0  9990",
        "tle_line2": "2 33376   0.0408 264.6224 0002747  16.3780 236.8641  1.00271832 63167"
      },
      "geometry": {
        "type": "Point",
        "coordinates": [
          80.78066529356987,
          0.020413415130633477
        ]
      }
    },
    {
      "type": "Feature",
      "properties": {
        "norad_id": 35493,
        "name": "FM-5",
        "group": "intelsat",
        "lat": 0.01950569229031249,
        "lon": 91.60815497080883,
        "alt_km": 35785.60721352459,
        "timestamp": "2025-12-26T05:31:12.167536+00:00",
        "meta_object_name": "FM-5",
        "meta_object_id": "2009-034A",
        "meta_epoch": "2025-12-25T21:13:02.840160",
        "meta_mean_motion": 1.00269478,
        "meta_eccentricity": 7.896e-05,
        "meta_inclination": 0.0148,
        "meta_ra_of_asc_node": 303.8545,
        "meta_arg_of_pericenter": 217.7513,
        "meta_mean_anomaly": 165.1409,
        "meta_ephemeris_type": 0,
        "meta_classification_type": "U",
        "meta_norad_cat_id": 35493,
        "meta_element_set_no": 999,
        "meta_rev_at_epoch": 4490,
        "meta_bstar": 0,
        "meta_mean_motion_dot": -1.78e-06,
        "meta_mean_motion_ddot": 0,
        "tle_line1": "1 35493U 09034A   25359.88406065 -.00000178  00000+0  00000+0 0  9996",
        "tle_line2": "2 35493   0.0148 303.8545 0000789 217.7513 165.1409  1.00269478 44907"
      },
      "geometry": {
        "type": "Point",
        "coordinates": [
          91.60815497080883,
          0.01950569229031249
        ]
      }
    },
    {
      "type": "Feature",
      "properties": {
        "norad_id": 36097,
        "name": "INTELSAT 14 (IS-14)",
        "group": "intelsat",
        "lat": 0.028711426166199056,
        "lon": 132.72720467365758,
        "alt_km": 35796.988353772205,
        "timestamp": "2025-12-26T05:31:12.167548+00:00",
        "meta_object_name": "INTELSAT 14 (IS-14)",
        "meta_object_id": "2009-064A",
        "meta_epoch": "2025-12-24T11:10:22.140192",
        "meta_mean_motion": 1.00269035,
        "meta_eccentricity": 0.0002637,
        "meta_inclination": 0.013,
        "meta_ra_of_asc_node": 11.8022,
        "meta_arg_of_pericenter": 274.0942,
        "meta_mean_anomaly": 289.9229,
        "meta_ephemeris_type": 0,
        "meta_classification_type": "U",
        "meta_norad_cat_id": 36097,
        "meta_element_set_no": 999,
        "meta_rev_at_epoch": 5885,
        "meta_bstar": 0,
        "meta_mean_motion_dot": -2.53e-06,
        "meta_mean_motion_ddot": 0,
        "tle_line1": "1 36097U 09064A   25358.46553403 -.00000253  00000+0  00000+0 0  9996",
        "tle_line2": "2 36097   0.0130  11.8022 0002637 274.0942 289.9229  1.00269035 58854"
      },
      "geometry": {
        "type": "Point",
        "coordinates": [
          132.72720467365758,
          0.028711426166199056
        ]
      }
    },
    {
      "type": "Feature",
      "properties": {
        "norad_id": 36106,
        "name": "INTELSAT 15 (IS-15)",
        "group": "intelsat",
        "lat": -0.022495453826236942,
        "lon": -97.08720241234978,
        "alt_km": 35777.21704123636,
        "timestamp": "2025-12-26T05:31:12.167560+00:00",
        "meta_object_name": "INTELSAT 15 (IS-15)",
        "meta_object_id": "2009-067A",
        "meta_epoch": "2025-12-25T21:36:38.577600",
        "meta_mean_motion": 1.00270275,
        "meta_eccentricity": 0.00024098,
        "meta_inclination": 0.0144,
        "meta_ra_of_asc_node": 49.9659,
        "meta_arg_of_pericenter": 237.0636,
        "meta_mean_anomaly": 216.9386,
        "meta_ephemeris_type": 0,
        "meta_classification_type": "U",
        "meta_norad_cat_id": 36106,
        "meta_element_set_no": 999,
        "meta_rev_at_epoch": 3949,
        "meta_bstar": 0,
        "meta_mean_motion_dot": -1.63e-06,
        "meta_mean_motion_ddot": 0,
        "tle_line1": "1 36106U 09067A   25359.90044650 -.00000163  00000+0  00000+0 0  9999",
        "tle_line2": "2 36106   0.0144  49.9659 0002409 237.0636 216.9386  1.00270275 39495"
      },
      "geometry": {
        "type": "Point",
        "coordinates": [
          -97.08720241234978,
          -0.022495453826236942
        ]
      }
    },
    {
      "type": "Feature",
      "properties": {
        "norad_id": 36131,
        "name": "DIRECTV 12",
        "group": "intelsat",
        "lat": -0.0028086935331763617,
        "lon": 75.06990953947594,
        "alt_km": 35786.82403757965,
        "timestamp": "2025-12-26T05:31:12.167571+00:00",
        "meta_object_name": "DIRECTV 12",
        "meta_object_id": "2009-075A",
        "meta_epoch": "2025-12-25T14:17:27.635136",
        "meta_mean_motion": 1.00273448,
        "meta_eccentricity": 5.26e-05,
        "meta_inclination": 0.0362,
        "meta_ra_of_asc_node": 165.2057,
        "meta_arg_of_pericenter": 147.3669,
        "meta_mean_anomaly": 253.4343,
        "meta_ephemeris_type": 0,
        "meta_classification_type": "U",
        "meta_norad_cat_id": 36131,
        "meta_element_set_no": 999,
        "meta_rev_at_epoch": 4481,
        "meta_bstar": 0,
        "meta_mean_motion_dot": -8.2e-07,
        "meta_mean_motion_ddot": 0,
        "tle_line1": "1 36131U 09075A   25359.59545874 -.00000082  00000+0  00000+0 0  9995",
        "tle_line2": "2 36131   0.0362 165.2057 0000526 147.3669 253.4343  1.00273448 44812"
      },
      "geometry": {
        "type": "Point",
        "coordinates": [
          75.06990953947594,
          -0.0028086935331763617
        ]
      }
    },
    {
      "type": "Feature",
      "properties": {
        "norad_id": 36397,
        "name": "INTELSAT 16 (IS-16)",
        "group": "intelsat",
        "lat": 0.02612384847016824,
        "lon": 101.58521808654476,
        "alt_km": 35794.10472599422,
        "timestamp": "2025-12-26T05:31:12.167583+00:00",
        "meta_object_name": "INTELSAT 16 (IS-16)",
        "meta_object_id": "2010-006A",
        "meta_epoch": "2025-12-25T04:32:09.998304",
        "meta_mean_motion": 1.00272308,
        "meta_eccentricity": 0.00019441,
        "meta_inclination": 0.0098,
        "meta_ra_of_asc_node": 346.2974,
        "meta_arg_of_pericenter": 284.2377,
        "meta_mean_anomaly": 175.2747,
        "meta_ephemeris_type": 0,
        "meta_classification_type": "U",
        "meta_norad_cat_id": 36397,
        "meta_element_set_no": 999,
        "meta_rev_at_epoch": 5791,
        "meta_bstar": 0,
        "meta_mean_motion_dot": -2.23e-06,
        "meta_mean_motion_ddot": 0,
        "tle_line1": "1 36397U 10006A   25359.18900461 -.00000223  00000+0  00000+0 0  9994",
        "tle_line2": "2 36397   0.0098 346.2974 0001944 284.2377 175.2747  1.00272308 57911"
      },
      "geometry": {
        "type": "Point",
        "coordinates": [
          101.58521808654476,
          0.02612384847016824
        ]
      }
    },
    {
      "type": "Feature",
      "properties": {
        "norad_id": 37185,
        "name": "XM-5",
        "group": "intelsat",
        "lat": 0.042205999764201536,
        "lon": 62.55500643840998,
        "alt_km": 35785.12016551605,
        "timestamp": "2025-12-26T05:31:12.167595+00:00",
        "meta_object_name": "XM-5",
        "meta_object_id": "2010-053A",
        "meta_epoch": "2025-12-25T12:31:00.329376",
        "meta_mean_motion": 1.0027234,
        "meta_eccentricity": 0.0001895,
        "meta_inclination": 0.0637,
        "meta_ra_of_asc_node": 269.6529,
        "meta_arg_of_pericenter": 237.5328,
        "meta_mean_anomaly": 19.6486,
        "meta_ephemeris_type": 0,
        "meta_classification_type": "U",
        "meta_norad_cat_id": 37185,
        "meta_element_set_no": 999,
        "meta_rev_at_epoch": 5574,
        "meta_bstar": 0,
        "meta_mean_motion_dot": -2e-08,
        "meta_mean_motion_ddot": 0,
        "tle_line1": "1 37185U 10053A   25359.52153159 -.00000002  00000+0  00000+0 0  9999",
        "tle_line2": "2 37185   0.0637 269.6529 0001895 237.5328  19.6486  1.00272340 55748"
      },
      "geometry": {
        "type": "Point",
        "coordinates": [
          62.55500643840998,
          0.042205999764201536
        ]
      }
    }
  ]
}